{
  "norad_id": 61789,
  "name": "SITRO-AIS 17",
  "history": [
    {
      "epoch": "2026-03-28T22:09:09.281376Z",
      "apogee_km": 578.723209063286,
      "perigee_km": 570.360804860873,
      "latitude_deg": -4.630135289831316e-05,
      "longitude_deg": 133.8777235321134,
      "height_km": 573.4365813333073,
      "semi_major_axis_km": 6952.679006962079,
      "eccentricity": 0.00060138,
      "inclination_deg": 97.3318,
      "raan_deg": 292.5029,
      "arg_perigee_deg": 4.9523,
      "mean_anomaly_deg": 355.1758,
      "mean_motion_rev_day": 14.9752642
    },
    {
      "epoch": "2026-03-29T04:34:01.763616Z",
      "apogee_km": 578.7032423636401,
      "perigee_km": 570.3572605949639,
      "latitude_deg": -2.0353806222319526e-06,
      "longitude_deg": 37.64650456029676,
      "height_km": 573.4277742500799,
      "semi_major_axis_km": 6952.667251479302,
      "eccentricity": 0.0006002,
      "inclination_deg": 97.3318,
      "raan_deg": 292.7538,
      "arg_perigee_deg": 4.0052,
      "mean_anomaly_deg": 356.1218,
      "mean_motion_rev_day": 14.97530218
    },
    {
      "epoch": "2026-03-30T04:37:18.283872Z",
      "apogee_km": 578.6277258717146,
      "perigee_km": 570.3791132779315,
      "latitude_deg": 5.4899460653974104e-05,
      "longitude_deg": 36.78077664338511,
      "height_km": 573.4401201586519,
      "semi_major_axis_km": 6952.640419574823,
      "eccentricity": 0.0005932,
      "inclination_deg": 97.3315,
      "raan_deg": 293.6948,
      "arg_perigee_deg": 0.3738,
      "mean_anomaly_deg": 359.7489,
      "mean_motion_rev_day": 14.97538887
    },
    {
      "epoch": "2026-03-30T06:13:31.365984Z",
      "apogee_km": 578.6235809024565,
      "perigee_km": 570.379420274,
      "latitude_deg": 6.284753252828914e-05,
      "longitude_deg": 12.72320799868283,
      "height_km": 573.4403877968067,
      "semi_major_axis_km": 6952.638500588228,
      "eccentricity": 0.00059288,
      "inclination_deg": 97.3315,
      "raan_deg": 293.7576,
      "arg_perigee_deg": 0.1141,
      "mean_anomaly_deg": 0.0083,
      "mean_motion_rev_day": 14.97539507
    },
    {
      "epoch": "2026-03-30T14:14:36.727296Z",
      "apogee_km": 578.6082868827061,
      "perigee_km": 570.3741502309049,
      "latitude_deg": -4.8976103405676335e-05,
      "longitude_deg": -107.56481006913901,
      "height_km": 573.436143691245,
      "semi_major_axis_km": 6952.628218556805,
      "eccentricity": 0.00059216,
      "inclination_deg": 97.3314,
      "raan_deg": 294.0712,
      "arg_perigee_deg": 358.8568,
      "mean_anomaly_deg": 1.264,
      "mean_motion_rev_day": 14.97542829
    }
  ]
}